OBJECT_NAME,OBJECT_ID,EPOCH,MEAN_MOTION,ECCENTRICITY,INCLINATION,RA_OF_ASC_NODE,ARG_OF_PERICENTER,MEAN_ANOMALY,EPHEMERIS_TYPE,CLASSIFICATION_TYPE,NORAD_CAT_ID,ELEMENT_SET_NO,REV_AT_EPOCH,BSTAR,MEAN_MOTION_DOT,MEAN_MOTION_DDOT
SWARM A,2013-067B,2026-06-04T05:59:29.210496,15.50683275,.00030274,87.3332,61.0463,90.9783,269.1824,0,U,39452,999,70424,.19904451E-3,.11463E-3,0
SWARM C,2013-067C,2026-06-04T05:59:19.944096,15.50685274,.00030142,87.3331,59.6276,90.8856,269.2750,0,U,39453,999,70420,.19670073E-3,.11329E-3,0
BRITE-CA1 (TORONTO),2014-033L,2026-06-03T07:30:38.858400,14.72656654,.00777195,97.9723,283.4981,322.1342,37.4414,0,U,40020,999,64017,.12817401E-3,.802E-5,0
OCO 2,2014-035A,2026-06-04T05:53:36.142944,14.57100264,.00014707,98.2015,96.7361,87.3375,272.7992,0,U,40059,999,63416,.1273993E-3,.529E-5,0
BRITE-PL2 (HEWELIUSZ),2014-049B,2026-06-03T07:31:39.473184,14.94537783,.00148153,97.9084,266.2083,151.1613,209.0429,0,U,40119,999,63937,.2460017E-3,.2604E-4,0
MMS 1,2015-011A,2026-06-04T08:00:19.999584,0.28347207,.83354977,71.9462,348.9657,167.0370,67.7106,0,U,40482,999,137,0,-.391E-5,0
MMS 2,2015-011B,2026-06-04T08:00:19.999584,0.28347170,.83363146,71.9474,348.9674,167.0429,67.6976,0,U,40483,999,137,0,-.391E-5,0
MMS 3,2015-011C,2026-06-04T08:00:19.999584,0.28347131,.83355108,71.9504,348.9720,167.0374,67.6945,0,U,40484,999,137,0,-.391E-5,0
MMS 4,2015-011D,2026-06-04T08:00:19.999584,0.28347120,.83351027,71.9468,348.9677,167.0451,67.6828,0,U,40485,999,137,0,-.391E-5,0
ASTROSAT,2015-052A,2026-06-04T00:58:03.844992,14.82484264,.00082316,5.9962,249.9966,211.3918,148.5718,0,U,40930,999,57787,.13843982E-3,.1809E-4,0
DAMPE,2015-078A,2026-06-04T06:58:41.928384,15.30750806,.00134665,97.4555,160.6947,117.1796,243.0820,0,U,41173,999,58257,.54122596E-4,.1534E-4,0
PISAT,2016-059B,2026-06-03T23:56:32.830080,14.68959119,.00275826,97.8177,156.0175,246.5558,113.2748,0,U,41784,999,51780,.17863658E-3,.1004E-4,0
HXMT (HUIYAN),2017-034A,2026-06-04T07:22:14.805120,15.18374134,.00302683,43.0141,254.7572,62.0221,298.3685,0,U,42758,999,49570,.26969831E-3,.5469E-4,0
FLYING LAPTOP,2017-042G,2026-06-04T06:05:07.794816,15.01055377,.00187604,97.4641,311.2887,164.0656,196.1163,0,U,42831,999,48451,.27508581E-3,.3472E-4,0
ZHANGHENG 1-01 (CSES-1),2018-015C,2026-06-04T07:23:36.057408,15.20639904,.00173358,97.6865,320.7121,314.7159,45.2663,0,U,43194,999,46268,.34147046E-3,.7451E-4,0
SALSAT,2020-068K,2026-06-03T23:56:12.056928,15.29597840,.00093644,97.8850,157.2614,359.9507,0.1729,0,U,46495,999,31334,.30076162E-3,.8555E-4,0
IXPE,2021-121A,2026-06-04T08:00:19.999584,15.10130566,.00076376,0.2318,54.2091,245.0563,194.6054,0,U,49954,999,559,.68017992E-3,.1237E-3,0
SMILE,2026-109A,2026-05-24T15:40:35.120928,14.57062785,.00091232,70.0007,229.2745,259.5159,100.4951,0,U,69123,999,80,-.42378883E-3,-.1976E-4,0
