SWARM A                 
1 39452U 13067B   26155.24964364  .00011463  00000+0  19904-3 0  9997
2 39452  87.3332  61.0463 0003027  90.9783 269.1824 15.50683275704240
SWARM C                 
1 39453U 13067C   26155.24953639  .00011329  00000+0  19670-3 0  9992
2 39453  87.3331  59.6276 0003014  90.8856 269.2750 15.50685274704207
BRITE-CA1 (TORONTO)     
1 40020U 14033L   26154.31294975  .00000802  00000+0  12817-3 0  9996
2 40020  97.9723 283.4981 0077719 322.1342  37.4414 14.72656654640175
OCO 2                   
1 40059U 14035A   26155.24555721  .00000529  00000+0  12740-3 0  9993
2 40059  98.2015  96.7361 0001470  87.3375 272.7992 14.57100264634160
BRITE-PL2 (HEWELIUSZ)   
1 40119U 14049B   26154.31365131  .00002604  00000+0  24600-3 0  9990
2 40119  97.9084 266.2083 0014815 151.1613 209.0429 14.94537783639373
MMS 1                   
1 40482U 15011A   26155.33356481 -.00000391  00000+0  00000+0 0  9990
2 40482  71.9462 348.9657 8335497 167.0370  67.7106  0.28347207  1375
MMS 2                   
1 40483U 15011B   26155.33356481 -.00000391  00000+0  00000+0 0  9991
2 40483  71.9474 348.9674 8336314 167.0429  67.6976  0.28347170  1375
MMS 3                   
1 40484U 15011C   26155.33356481 -.00000391  00000+0  00000+0 0  9992
2 40484  71.9504 348.9720 8335510 167.0374  67.6945  0.28347131  1371
MMS 4                   
1 40485U 15011D   26155.33356481 -.00000391  00000+0  00000+0 0  9993
2 40485  71.9468 348.9677 8335102 167.0451  67.6828  0.28347120  1373
ASTROSAT                
1 40930U 15052A   26155.04032228  .00001809  00000+0  13844-3 0  9999
2 40930   5.9962 249.9966 0008231 211.3918 148.5718 14.82484264577874
DAMPE                   
1 41173U 15078A   26155.29076306  .00001534  00000+0  54123-4 0  9990
2 41173  97.4555 160.6947 0013466 117.1796 243.0820 15.30750806582579
PISAT                   
1 41784U 16059B   26154.99760220  .00001004  00000+0  17864-3 0  9991
2 41784  97.8177 156.0175 0027582 246.5558 113.2748 14.68959119517809
HXMT (HUIYAN)           
1 42758U 17034A   26155.30711580  .00005469  00000+0  26970-3 0  9995
2 42758  43.0141 254.7572 0030268  62.0221 298.3685 15.18374134495708
FLYING LAPTOP           
1 42831U 17042G   26155.25356244  .00003472  00000+0  27509-3 0  9993
2 42831  97.4641 311.2887 0018760 164.0656 196.1163 15.01055377484514
ZHANGHENG 1-01 (CSES-1) 
1 43194U 18015C   26155.30805622  .00007451  00000+0  34147-3 0  9999
2 43194  97.6865 320.7121 0017335 314.7159  45.2663 15.20639904462680
SALSAT                  
1 46495U 20068K   26154.99736177  .00008555  00000+0  30076-3 0  9992
2 46495  97.8850 157.2614 0009364 359.9507   0.1729 15.29597840313346
IXPE                    
1 49954U 21121A   26155.33356481  .00012370  00000+0  68018-3 0  9998
2 49954   0.2318  54.2091 0007637 245.0563 194.6054 15.10130566  5592
SMILE                   
1 69123U 26109A   26144.65318427 -.00001976  00000+0 -42379-3 0  9994
2 69123  70.0007 229.2745 0009123 259.5159 100.4951 14.57062785   802
